[{"OBJECT_NAME":"STARLINK-6111","OBJECT_ID":"2023-090B","EPOCH":"2026-03-09T20:21:38.577888","MEAN_MOTION":15.02537156,"ECCENTRICITY":0.0001435,"INCLINATION":43.0042,"RA_OF_ASC_NODE":274.1027,"ARG_OF_PERICENTER":273.1088,"MEAN_ANOMALY":86.959,"EPHEMERIS_TYPE":0,"CLASSIFICATION_TYPE":"U","NORAD_CAT_ID":57102,"ELEMENT_SET_NO":999,"REV_AT_EPOCH":15043,"BSTAR":7.033728e-6,"MEAN_MOTION_DOT":-1.09e-6,"MEAN_MOTION_DDOT":0},{"OBJECT_NAME":"IMS-1","OBJECT_ID":"2008-021D","EPOCH":"2026-03-09T22:27:26.707392","MEAN_MOTION":15.03517095,"ECCENTRICITY":0.00068607,"INCLINATION":97.9418,"RA_OF_ASC_NODE":52.6663,"ARG_OF_PERICENTER":75.5168,"MEAN_ANOMALY":284.6817,"EPHEMERIS_TYPE":0,"CLASSIFICATION_TYPE":"U","NORAD_CAT_ID":32786,"ELEMENT_SET_NO":999,"REV_AT_EPOCH":96828,"BSTAR":0.00046947389,"MEAN_MOTION_DOT":6.344e-5,"MEAN_MOTION_DDOT":0}]
